STARLINK-4471           
1 53664U 22105S   26190.54298867  .00001061  00000+0  77423-4 0  9995
2 53664  97.2854  69.4406 0002253  73.8069 286.3406 15.05661747211639
STARLINK-4334           
1 53665U 22105T   26190.83335647  .00056719  00000+0  62459-3 0  9998
2 53665  97.6034  76.5708 0001118 108.6137  89.1788 15.62965500  5944
STARLINK-4406           
1 53667U 22105V   26190.79471919  .00025391  00000+0  72869-3 0  9996
2 53667  97.6003  75.1086 0002049 121.4568 238.6875 15.35848929211909
STARLINK-4458           
1 53668U 22105W   26190.83335647 -.01093883  00000+0 -16072-1 0  9995
2 53668  97.6033  76.9109 0001671  64.4376 303.7393 15.58070108  5968
STARLINK-4464           
1 53669U 22105X   26190.00002315  .00169900  00000+0  22167-2 0  9992
2 53669  97.6022  74.2031 0001340  86.3571 312.4192 15.58109609  5902
STARLINK-4459           
1 53670U 22105Y   26189.83687390  .00002176  00000+0  15467-3 0  9992
2 53670  97.2836  68.8456 0001918  97.4020 262.7426 15.05649476211534
STARLINK-4440           
1 53671U 22105Z   26190.09027329  .00000775  00000+0  57574-4 0  9992
2 53671  97.2849  67.9004 0002126  83.5284 276.6185 15.05659218211494
STARLINK-4428           
1 53672U 22105AA  26190.12629453  .00000462  00000+0  35957-4 0  9997
2 53672  97.2852  67.9925 0002535  85.8002 274.3515 15.05647892211507
STARLINK-4456           
1 53673U 22105AB  26190.83335647  .00359363  00000+0  51024-2 0  9993
2 53673  97.6021  74.0921 0001782  84.0412  63.3081 15.55160963  5895
STARLINK-4620           
1 53674U 22105AC  26190.13181317  .00000460  00000+0  35760-4 0  9992
2 53674  97.2862  67.9803 0002315  87.6427 272.5066 15.05656795211505
STARLINK-4617           
1 53675U 22105AD  26190.08334946  .00017551  00000+0  12192-2 0  9996
2 53675  97.2855  69.1080 0002160  55.2810 304.8621 15.05590195211578
STARLINK-4621           
1 53676U 22105AE  26189.64723307  .00000311  00000+0  25487-4 0  9999
2 53676  97.2845  67.5577 0001751  93.9199 266.2229 15.05645360211430
STARLINK-4579           
1 53677U 22105AF  26189.64304382  .00000157  00000+0  14803-4 0  9996
2 53677  97.2849  68.6424 0002405  87.1729 272.9774 15.05651831211506
STARLINK-4632           
1 53679U 22105AH  26190.54024343  .00000671  00000+0  50405-4 0  9994
2 53679  97.2860  69.5585 0002128  85.6656 274.4814 15.05655278211649
STARLINK-4630           
1 53680U 22105AJ  26189.64027576  .00000134  00000+0  13185-4 0  9994
2 53680  97.2841  68.6204 0002241  81.6341 278.5140 15.05646654211501
STARLINK-4424           
1 53681U 22105AK  26190.83335647  .00429444  00000+0  24013-2 0  9998
2 53681  97.6015  76.4472 0001614 106.1069 206.4840 15.78186973  5967
STARLINK-4438           
1 53682U 22105AL  26189.65965319  .00000721  00000+0  53839-4 0  9995
2 53682  97.2851  68.5875 0002323  79.1278 281.0211 15.05653217211500
STARLINK-4625           
1 53683U 22105AM  26190.17060306  .00000466  00000+0  36188-4 0  9991
2 53683  97.2841  68.0626 0002265  89.0189 271.1298 15.05647374211518
STARLINK-4624           
1 53684U 22105AN  26190.10689108 -.00000720  00000+0 -45980-4 0  9997
2 53684  97.2834  67.9513 0002248  81.8301 278.3182 15.05657626211478
STARLINK-4626           
1 53685U 22105AP  26190.54442072  .00001308  00000+0  94541-4 0  9991
2 53685  97.2856  68.3124 0001833  74.6595 285.4835 15.05655022211562
STARLINK-4467           
1 53686U 22105AQ  26189.60569643  .00003358  00000+0  23651-3 0  9991
2 53686  97.2866  67.4375 0002449  81.9999 278.1507 15.05656855211420
STARLINK-4569           
1 53687U 22105AR  26190.12208493  .00000467  00000+0  36237-4 0  9997
2 53687  97.2841  69.0298 0002582  82.8679 277.2842 15.05657431211578
STARLINK-4571           
1 53688U 22105AS  26190.12073559  .00000162  00000+0  15115-4 0  9995
2 53688  97.2851  67.9519 0002456  84.3695 275.7813 15.05655830211503
STARLINK-4570           
1 53690U 22105AU  26189.64446642  .00000211  00000+0  18503-4 0  9999
2 53690  97.2845  67.5232 0002291  88.0870 272.0620 15.05644096211430
STARLINK-4560           
1 53691U 22105AV  26190.82820940 -.00002557  00000+0 -17325-3 0  9996
2 53691  97.2858  69.7372 0002829  92.7944 267.3608 15.05670685211688
STARLINK-4572           
1 53692U 22105AW  26189.64455302  .00025623  00000+0  93507-3 0  9994
2 53692  97.6050  78.4984 0002952 111.3627 248.7927 15.28120818211989
STARLINK-4566           
1 53693U 22105AX  26190.11933749 -.00000463  00000+0 -28188-4 0  9996
2 53693  97.2846  69.1602 0002289  86.0449 274.1041 15.05649312211582
YAOGAN-33 02            
1 53698U 22106A   26190.83161309  .00000076  00000+0  26069-4 0  9990
2 53698  98.1816 198.3547 0003280  89.0902 271.0673 14.58733383205024
STARLINK-4725           
1 53700U 22107A   26190.07153095  .00007001  00000+0  45811-3 0  9994
2 53700  53.1610  58.6191 0001795  92.4377 267.6820 15.08792875213185
STARLINK-4711           
1 53701U 22107B   26190.06784477  .00001558  00000+0  11597-3 0  9993
2 53701  53.1607  58.5979 0001429  98.3940 261.7213 15.08834099213186
STARLINK-4724           
1 53702U 22107C   26190.83335647  .00012030  00000+0  68262-3 0  9998
2 53702  53.1606  40.4010 0000483   8.4547  90.7642 15.13349931  5745
STARLINK-4731           
1 53703U 22107D   26190.01633130  .00001548  00000+0  11528-3 0  9992
2 53703  53.1613  58.9863 0001282  71.6024 288.5106 15.08848282213171
STARLINK-4714           
1 53704U 22107E   26190.76226139  .00078896  00000+0  26638-2 0  9999
2 53704  53.1621  54.4233 0001688 120.9681 239.1485 15.30003709213141
STARLINK-4717           
1 53705U 22107F   26190.72295139 -.00001025  00000+0 -46303-4 0  9997
2 53705  53.1607  56.2806 0001435  97.3067 262.8088 15.08835160213272
STARLINK-4716           
1 53706U 22107G   26190.04581806  .00001421  00000+0  10735-3 0  9999
2 53706  53.1608  59.1682 0001307  89.8308 270.2834 15.08837626213170
STARLINK-4667           
1 53707U 22107H   26190.83335647  .00014344  00000+0  73230-3 0  9994
2 53707  53.1606  40.3711 0002111  63.8755  49.0018 15.16957657  5841
STARLINK-4694           
1 53708U 22107J   26190.83335647  .00016294  00000+0  92875-3 0  9997
2 53708  53.1602  40.3751 0001553  99.4355  15.8820 15.12936037  5670
STARLINK-4685           
1 53709U 22107K   26189.94410938 -.00000348  00000+0 -37845-5 0  9998
2 53709  53.1606  64.2601 0001324  77.3320 282.7819 15.08825143212782
STARLINK-4627           
1 53711U 22107M   26190.00002315  .00024687  00000+0  71649-3 0  9994
2 53711  53.1611  61.5741 0001144  77.7967  35.1764 15.35391067  5767
STARLINK-4683           
1 53712U 22107N   26190.72424814  .00000593  00000+0  55331-4 0  9997
2 53712  53.1611  60.6053 0001648  79.1889 280.9288 15.08845593212929
STARLINK-4686           
1 53715U 22107R   26190.83335647  .00023714  00000+0  85968-3 0  9995
2 53715  53.1600  63.8442 0001926  84.7065  64.2762 15.28263287  5830
STARLINK-4699           
1 53716U 22107S   26190.83335647  .00009281  00000+0  42085-3 0  9992
2 53716  53.1594  64.8288 0000511 138.4878 220.7197 15.21523601  5833
STARLINK-4695           
1 53718U 22107U   26190.83335647  .00011574  00000+0  55978-3 0  9997
2 53718  53.1599  65.6168 0000684 144.3445 166.5192 15.19044758  5833
STARLINK-4644           
1 53719U 22107V   26189.87095144  .00000360  00000+0  40736-4 0  9993
2 53719  53.1602  39.5209 0001302  96.8435 263.2705 15.08831770213138
STARLINK-4642           
1 53720U 22107W   26190.83335647  .00951349  00000+0  26713-1 0  9996
2 53720  53.1605  63.3811 0001280  62.5396 324.4669 15.33600449  5838
STARLINK-4707           
1 53721U 22107X   26190.83335647  .00011231  00000+0  51980-3 0  9990
2 53721  53.1596  64.8529 0001260 114.9089 235.6368 15.20606505  5787
STARLINK-4700           
1 53722U 22107Y   26190.83335647  .00010788  00000+0  48566-3 0  9993
2 53722  53.1586  64.8073 0001076 118.4646 254.2641 15.21601500  5696
STARLINK-4705           
1 53723U 22107Z   26190.83335647  .00007624  00000+0  38309-3 0  9993
2 53723  53.1599  64.7454 0001736  80.0920 327.8696 15.18208122  5837
STARLINK-4663           
1 53724U 22107AA  26190.83335647  .00015469  00000+0  60742-3 0  9996
2 53724  53.1592  64.0596 0001089 104.7162 294.6591 15.25905602  5733
STARLINK-4697           
1 53726U 22107AC  26190.83335647  .00007014  00000+0  31128-3 0  9991
2 53726  53.1588  64.7852 0000705  95.9084 289.7114 15.22656213  5745
STARLINK-4701           
1 53727U 22107AD  26190.83335647  .00011165  00000+0  51057-3 0  9997
2 53727  53.1601  64.8931 0001363  99.8258 230.8787 15.21024956  5833
STARLINK-4640           
1 53728U 22107AE  26190.83335647 -.00028653  00000+0 -81345-3 0  9993
2 53728  53.1762  63.1320 0000804 103.4655  52.1207 15.35407815  5845
STARLINK-4651           
1 53729U 22107AF  26189.90399266  .00000080  00000+0  22603-4 0  9992
2 53729  53.1616  69.6925 0001364  92.5218 267.5930 15.09994605212889
STARLINK-4641           
1 53730U 22107AG  26190.83335647 -.00020584  00000+0 -58068-3 0  9997
2 53730  53.1608  63.4766 0001417  86.4381 252.1443 15.35404420  5732
STARLINK-4636           
1 53731U 22107AH  26189.91429355  .00020597  00000+0  10225-2 0  9999
2 53731  53.2105  64.3742 0005220 138.3209 221.8186 15.17674098212964
STARLINK-4661           
1 53732U 22107AJ  26190.83335647  .00033922  00000+0  11262-2 0  9991
2 53732  53.1610  63.6619 0001011  83.8235 160.5412 15.30939781  5832
STARLINK-4574           
1 53733U 22107AK  26189.95376991  .00003537  00000+0  11884-3 0  9990
2 53733  53.1599  67.1952 0001353  97.0777 263.0380 15.33546346212922
STARLINK-4616           
1 53734U 22107AL  26190.83335647  .00009542  00000+0  47685-3 0  9993
2 53734  53.1616  65.2805 0001390  89.7147  42.6998 15.18107879  5786
STARLINK-4618           
1 53735U 22107AM  26190.83335647  .00026689  00000+0  86292-3 0  9992
2 53735  53.1601  73.3494 0001420  88.2695 308.8550 15.31915907  5786
